[{"OBJECT_NAME":"YAOGAN-7","OBJECT_ID":"2009-069A","EPOCH":"2026-03-28T15:49:28.241760","MEAN_MOTION":14.77922206,"ECCENTRICITY":0.002346,"INCLINATION":98.0179,"RA_OF_ASC_NODE":333.9811,"ARG_OF_PERICENTER":300.8754,"MEAN_ANOMALY":59.0149,"EPHEMERIS_TYPE":0,"CLASSIFICATION_TYPE":"U","NORAD_CAT_ID":36110,"ELEMENT_SET_NO":999,"REV_AT_EPOCH":87773,"BSTAR":9.8367e-5,"MEAN_MOTION_DOT":6.58e-6,"MEAN_MOTION_DDOT":0},{"OBJECT_NAME":"XIWANG-1 (HOPE-1)","OBJECT_ID":"2009-072B","EPOCH":"2026-03-28T20:04:59.509632","MEAN_MOTION":13.16438737,"ECCENTRICITY":0.0008117,"INCLINATION":100.3943,"RA_OF_ASC_NODE":42.9819,"ARG_OF_PERICENTER":59.3642,"MEAN_ANOMALY":300.8271,"EPHEMERIS_TYPE":0,"CLASSIFICATION_TYPE":"U","NORAD_CAT_ID":36122,"ELEMENT_SET_NO":999,"REV_AT_EPOCH":78243,"BSTAR":0.0012719,"MEAN_MOTION_DOT":4.41e-6,"MEAN_MOTION_DDOT":0},{"OBJECT_NAME":"RADUGA-1M 2","OBJECT_ID":"2010-002A","EPOCH":"2026-03-28T19:45:34.748640","MEAN_MOTION":0.98968618,"ECCENTRICITY":0.0008161,"INCLINATION":3.4123,"RA_OF_ASC_NODE":79.8388,"ARG_OF_PERICENTER":254.7318,"MEAN_ANOMALY":114.2754,"EPHEMERIS_TYPE":0,"CLASSIFICATION_TYPE":"U","NORAD_CAT_ID":36358,"ELEMENT_SET_NO":999,"REV_AT_EPOCH":4923,"BSTAR":0,"MEAN_MOTION_DOT":-2.49e-6,"MEAN_MOTION_DDOT":0},{"OBJECT_NAME":"COSMOS 2463","OBJECT_ID":"2010-017A","EPOCH":"2026-03-28T20:48:56.801376","MEAN_MOTION":13.7165974,"ECCENTRICITY":0.0036062,"INCLINATION":82.9593,"RA_OF_ASC_NODE":308.7407,"ARG_OF_PERICENTER":355.1173,"MEAN_ANOMALY":16.1337,"EPHEMERIS_TYPE":0,"CLASSIFICATION_TYPE":"U","NORAD_CAT_ID":36519,"ELEMENT_SET_NO":999,"REV_AT_EPOCH":79692,"BSTAR":6.0352e-5,"MEAN_MOTION_DOT":7.0e-7,"MEAN_MOTION_DDOT":0},{"OBJECT_NAME":"CARTOSAT-2B","OBJECT_ID":"2010-035A","EPOCH":"2026-03-27T10:59:25.998720","MEAN_MOTION":14.78654353,"ECCENTRICITY":0.0012736,"INCLINATION":97.9753,"RA_OF_ASC_NODE":137.5018,"ARG_OF_PERICENTER":94.8962,"MEAN_ANOMALY":265.3704,"EPHEMERIS_TYPE":0,"CLASSIFICATION_TYPE":"U","NORAD_CAT_ID":36795,"ELEMENT_SET_NO":999,"REV_AT_EPOCH":84777,"BSTAR":0.00013576,"MEAN_MOTION_DOT":9.44e-6,"MEAN_MOTION_DDOT":0},{"OBJECT_NAME":"AISSAT 1","OBJECT_ID":"2010-035C","EPOCH":"2026-03-28T17:50:16.629792","MEAN_MOTION":14.97006114,"ECCENTRICITY":0.0008426,"INCLINATION":98.1014,"RA_OF_ASC_NODE":344.1397,"ARG_OF_PERICENTER":334.2158,"MEAN_ANOMALY":25.8642,"EPHEMERIS_TYPE":0,"CLASSIFICATION_TYPE":"U","NORAD_CAT_ID":36797,"ELEMENT_SET_NO":999,"REV_AT_EPOCH":85218,"BSTAR":0.0002088,"MEAN_MOTION_DOT":2.341e-5,"MEAN_MOTION_DDOT":0},{"OBJECT_NAME":"TISAT 1","OBJECT_ID":"2010-035E","EPOCH":"2026-03-28T19:30:22.107168","MEAN_MOTION":15.28500358,"ECCENTRICITY":0.0003597,"INCLINATION":98.0655,"RA_OF_ASC_NODE":27.4637,"ARG_OF_PERICENTER":128.5034,"MEAN_ANOMALY":231.6526,"EPHEMERIS_TYPE":0,"CLASSIFICATION_TYPE":"U","NORAD_CAT_ID":36799,"ELEMENT_SET_NO":999,"REV_AT_EPOCH":85541,"BSTAR":0.0009262,"MEAN_MOTION_DOT":0.00025672,"MEAN_MOTION_DDOT":0},{"OBJECT_NAME":"YAOGAN-10","OBJECT_ID":"2010-038A","EPOCH":"2026-03-28T20:24:34.565184","MEAN_MOTION":14.8508983,"ECCENTRICITY":0.0001602,"INCLINATION":97.9066,"RA_OF_ASC_NODE":111.8816,"ARG_OF_PERICENTER":83.2915,"MEAN_ANOMALY":19.3531,"EPHEMERIS_TYPE":0,"CLASSIFICATION_TYPE":"U","NORAD_CAT_ID":36834,"ELEMENT_SET_NO":999,"REV_AT_EPOCH":84528,"BSTAR":0.00026455,"MEAN_MOTION_DOT":2.207e-5,"MEAN_MOTION_DDOT":0},{"OBJECT_NAME":"SHIJIAN-6 04B (SJ-6 04B)","OBJECT_ID":"2010-051B","EPOCH":"2026-03-28T20:47:04.257600","MEAN_MOTION":14.99146105,"ECCENTRICITY":0.0010499,"INCLINATION":97.8714,"RA_OF_ASC_NODE":92.4497,"ARG_OF_PERICENTER":220.0762,"MEAN_ANOMALY":139.9687,"EPHEMERIS_TYPE":0,"CLASSIFICATION_TYPE":"U","NORAD_CAT_ID":37180,"ELEMENT_SET_NO":999,"REV_AT_EPOCH":84364,"BSTAR":6.6931e-5,"MEAN_MOTION_DOT":7.53e-6,"MEAN_MOTION_DDOT":0},{"OBJECT_NAME":"FENGYUN 3B","OBJECT_ID":"2010-059A","EPOCH":"2026-03-28T19:56:29.916384","MEAN_MOTION":14.14823031,"ECCENTRICITY":0.0022949,"INCLINATION":98.9732,"RA_OF_ASC_NODE":133.4706,"ARG_OF_PERICENTER":56.1949,"MEAN_ANOMALY":32.7634,"EPHEMERIS_TYPE":0,"CLASSIFICATION_TYPE":"U","NORAD_CAT_ID":37214,"ELEMENT_SET_NO":999,"REV_AT_EPOCH":79606,"BSTAR":0.00011903,"MEAN_MOTION_DOT":1.85e-6,"MEAN_MOTION_DDOT":0},{"OBJECT_NAME":"COSMO-SKYMED 4","OBJECT_ID":"2010-060A","EPOCH":"2026-03-28T08:43:34.949280","MEAN_MOTION":14.82160786,"ECCENTRICITY":0.00014971,"INCLINATION":97.8884,"RA_OF_ASC_NODE":272.1304,"ARG_OF_PERICENTER":81.379,"MEAN_ANOMALY":278.7593,"EPHEMERIS_TYPE":0,"CLASSIFICATION_TYPE":"U","NORAD_CAT_ID":37216,"ELEMENT_SET_NO":999,"REV_AT_EPOCH":83259,"BSTAR":2.4820267e-5,"MEAN_MOTION_DOT":1.45e-6,"MEAN_MOTION_DDOT":0},{"OBJECT_NAME":"O/OREOS (USA 219)","OBJECT_ID":"2010-062C","EPOCH":"2026-03-28T19:45:38.115648","MEAN_MOTION":14.93381196,"ECCENTRICITY":0.0016163,"INCLINATION":71.9691,"RA_OF_ASC_NODE":262.3259,"ARG_OF_PERICENTER":224.3172,"MEAN_ANOMALY":135.6706,"EPHEMERIS_TYPE":0,"CLASSIFICATION_TYPE":"U","NORAD_CAT_ID":37224,"ELEMENT_SET_NO":999,"REV_AT_EPOCH":10464,"BSTAR":0.00031764,"MEAN_MOTION_DOT":3.282e-5,"MEAN_MOTION_DDOT":0},{"OBJECT_NAME":"ELEKTRO-L 1 (GOMS 2)","OBJECT_ID":"2011-001A","EPOCH":"2026-03-28T07:34:01.900128","MEAN_MOTION":1.00166169,"ECCENTRICITY":0.00034934,"INCLINATION":9.5047,"RA_OF_ASC_NODE":55.3118,"ARG_OF_PERICENTER":12.6332,"MEAN_ANOMALY":152.7191,"EPHEMERIS_TYPE":0,"CLASSIFICATION_TYPE":"U","NORAD_CAT_ID":37344,"ELEMENT_SET_NO":999,"REV_AT_EPOCH":5567,"BSTAR":0,"MEAN_MOTION_DOT":-2.43e-6,"MEAN_MOTION_DDOT":0},{"OBJECT_NAME":"RESOURCESAT-2","OBJECT_ID":"2011-015A","EPOCH":"2026-03-28T15:29:04.276032","MEAN_MOTION":14.22367515,"ECCENTRICITY":0.0009516,"INCLINATION":98.7711,"RA_OF_ASC_NODE":155.6137,"ARG_OF_PERICENTER":117.2326,"MEAN_ANOMALY":242.9822,"EPHEMERIS_TYPE":0,"CLASSIFICATION_TYPE":"U","NORAD_CAT_ID":37387,"ELEMENT_SET_NO":999,"REV_AT_EPOCH":77473,"BSTAR":-0.00013402,"MEAN_MOTION_DOT":-3.43e-6,"MEAN_MOTION_DDOT":0},{"OBJECT_NAME":"YOUTHSAT","OBJECT_ID":"2011-015B","EPOCH":"2026-03-28T20:43:23.974752","MEAN_MOTION":14.2559325,"ECCENTRICITY":0.0013704,"INCLINATION":98.3622,"RA_OF_ASC_NODE":65.5696,"ARG_OF_PERICENTER":214.1091,"MEAN_ANOMALY":203.176,"EPHEMERIS_TYPE":0,"CLASSIFICATION_TYPE":"U","NORAD_CAT_ID":37388,"ELEMENT_SET_NO":999,"REV_AT_EPOCH":77619,"BSTAR":0.00012348,"MEAN_MOTION_DOT":2.51e-6,"MEAN_MOTION_DDOT":0},{"OBJECT_NAME":"APRIZESAT 6","OBJECT_ID":"2011-044F","EPOCH":"2026-03-28T17:22:12.825984","MEAN_MOTION":14.76793111,"ECCENTRICITY":0.0042925,"INCLINATION":98.2404,"RA_OF_ASC_NODE":356.5704,"ARG_OF_PERICENTER":345.2266,"MEAN_ANOMALY":68.7563,"EPHEMERIS_TYPE":0,"CLASSIFICATION_TYPE":"U","NORAD_CAT_ID":37793,"ELEMENT_SET_NO":999,"REV_AT_EPOCH":78527,"BSTAR":0.0001467,"MEAN_MOTION_DOT":9.88e-6,"MEAN_MOTION_DDOT":0},{"OBJECT_NAME":"JUGNU","OBJECT_ID":"2011-058B","EPOCH":"2026-03-28T03:08:18.597984","MEAN_MOTION":14.13748391,"ECCENTRICITY":0.001835,"INCLINATION":19.9609,"RA_OF_ASC_NODE":80.8611,"ARG_OF_PERICENTER":261.0916,"MEAN_ANOMALY":167.5824,"EPHEMERIS_TYPE":0,"CLASSIFICATION_TYPE":"U","NORAD_CAT_ID":37839,"ELEMENT_SET_NO":999,"REV_AT_EPOCH":74754,"BSTAR":9.7636432e-5,"MEAN_MOTION_DOT":4.54e-6,"MEAN_MOTION_DDOT":0}]
