YAOGAN-7                
1 36110U 09069A   26087.65935465  .00000658  00000+0  98367-4 0  9996
2 36110  98.0179 333.9811 0023460 300.8754  59.0149 14.77922206877737
XIWANG-1 (HOPE-1)       
1 36122U 09072B   26087.83679988  .00000441  00000+0  12719-2 0  9993
2 36122 100.3943  42.9819 0008117  59.3642 300.8271 13.16438737782433
RADUGA-1M 2             
1 36358U 10002A   26087.82331885 -.00000249  00000+0  00000+0 0  9993
2 36358   3.4123  79.8388 0008161 254.7318 114.2754  0.98968618 49236
COSMOS 2463             
1 36519U 10017A   26087.86732409  .00000070  00000+0  60352-4 0  9991
2 36519  82.9593 308.7407 0036062 355.1173  16.1337 13.71659740796920
CARTOSAT-2B             
1 36795U 10035A   26086.45793980  .00000944  00000+0  13576-3 0  9997
2 36795  97.9753 137.5018 0012736  94.8962 265.3704 14.78654353847770
AISSAT 1                
1 36797U 10035C   26087.74324803  .00002341  00000+0  20880-3 0  9995
2 36797  98.1014 344.1397 0008426 334.2158  25.8642 14.97006114852188
TISAT 1                 
1 36799U 10035E   26087.81275587  .00025672  00000+0  92620-3 0  9992
2 36799  98.0655  27.4637 0003597 128.5034 231.6526 15.28500358855410
YAOGAN-10               
1 36834U 10038A   26087.85040006  .00002207  00000+0  26455-3 0  9997
2 36834  97.9066 111.8816 0001602  83.2915  19.3531 14.85089830845281
SHIJIAN-6 04B (SJ-6 04B)
1 37180U 10051B   26087.86602150  .00000753  00000+0  66931-4 0  9990
2 37180  97.8714  92.4497 0010499 220.0762 139.9687 14.99146105843642
FENGYUN 3B              
1 37214U 10059A   26087.83090181  .00000185  00000+0  11903-3 0  9995
2 37214  98.9732 133.4706 0022949  56.1949  32.7634 14.14823031796061
COSMO-SKYMED 4          
1 37216U 10060A   26087.36359895  .00000145  00000+0  24820-4 0  9996
2 37216  97.8884 272.1304 0001497  81.3790 278.7593 14.82160786832594
O/OREOS (USA 219)       
1 37224U 10062C   26087.82335782  .00003282  00000+0  31764-3 0  9996
2 37224  71.9691 262.3259 0016163 224.3172 135.6706 14.93381196104648
ELEKTRO-L 1 (GOMS 2)    
1 37344U 11001A   26087.31529977 -.00000243  00000+0  00000+0 0  9998
2 37344   9.5047  55.3118 0003493  12.6332 152.7191  1.00166169 55676
RESOURCESAT-2           
1 37387U 11015A   26087.64518838 -.00000343  00000+0 -13402-3 0  9996
2 37387  98.7711 155.6137 0009516 117.2326 242.9822 14.22367515774737
YOUTHSAT                
1 37388U 11015B   26087.86347193  .00000251  00000+0  12348-3 0  9999
2 37388  98.3622  65.5696 0013704 214.1091 203.1760 14.25593250776196
APRIZESAT 6             
1 37793U 11044F   26087.72375956  .00000988  00000+0  14670-3 0  9991
2 37793  98.2404 356.5704 0042925 345.2266  68.7563 14.76793111785272
JUGNU                   
1 37839U 11058B   26087.13077081  .00000454  00000+0  97636-4 0  9992
2 37839  19.9609  80.8611 0018350 261.0916 167.5824 14.13748391747543
